{"type": "FeatureCollection", "features": [ {"type": "Feature", "properties": {"norad_id": 66960, "name": "STARLINK-35879", "group": "last-30-days", "lat": 3.089720116920902, "lon": -74.28705061330167, "alt_km": 342.42873167066955, "timestamp": "2025-12-22T05:49:02.188050+00:00", "meta": {"OBJECT_NAME": "STARLINK-35879", "OBJECT_ID": "2025-288B", "EPOCH": "2025-12-21T20:00:01.999008", "MEAN_MOTION": 15.76844519, "ECCENTRICITY": 0.0001936, "INCLINATION": 43.0007, "RA_OF_ASC_NODE": 111.5203, "ARG_OF_PERICENTER": 279.6593, "MEAN_ANOMALY": 91.8294, "EPHEMERIS_TYPE": 0, "CLASSIFICATION_TYPE": "U", "NORAD_CAT_ID": 66960, "ELEMENT_SET_NO": 999, "REV_AT_EPOCH": 329, "BSTAR": -0.0086069, "MEAN_MOTION_DOT": -0.01284821, "MEAN_MOTION_DDOT": 0}, "tle": {"line1": "1 66960U 25288B   25355.83335647 -.01284821  00000+0 -86069-2 0  9999", "line2": "2 66960  43.0007 111.5203 0001936 279.6593  91.8294 15.76844519  3293"}}, "geometry": {"type": "Point", "coordinates": [-74.28705061330167, 3.089720116920902]}}, {"type": "Feature", "properties": {"norad_id": 66961, "name": "STARLINK-35761", "group": "last-30-days", "lat": 1.7644125009943432, "lon": -72.86595616515373, "alt_km": 342.53193936951357, "timestamp": "2025-12-22T05:49:02.188060+00:00", "meta": {"OBJECT_NAME": "STARLINK-35761", "OBJECT_ID": "2025-288C", "EPOCH": "2025-12-21T20:00:01.999008", "MEAN_MOTION": 15.76815171, "ECCENTRICITY": 0.0001974, "INCLINATION": 43.0007, "RA_OF_ASC_NODE": 111.5149, "ARG_OF_PERICENTER": 273.7217, "MEAN_ANOMALY": 99.7691, "EPHEMERIS_TYPE": 0, "CLASSIFICATION_TYPE": "U", "NORAD_CAT_ID": 66961, "ELEMENT_SET_NO": 999, "REV_AT_EPOCH": 329, "BSTAR": -0.0087396, "MEAN_MOTION_DOT": -0.01301073, "MEAN_MOTION_DDOT": 0}, "tle": {"line1": "1 66961U 25288C   25355.83335647 -.01301073  00000+0 -87396-2 0  9993", "line2": "2 66961  43.0007 111.5149 0001974 273.7217  99.7691 15.76815171  3293"}}, "geometry": {"type": "Point", "coordinates": [-72.86595616515373, 1.7644125009943432]}}, {"type": "Feature", "properties": {"norad_id": 66962, "name": "STARLINK-35874", "group": "last-30-days", "lat": 0.3707190636257528, "lon": -71.37442936587294, "alt_km": 342.9044967617301, "timestamp": "2025-12-22T05:49:02.188070+00:00", "meta": {"OBJECT_NAME": "STARLINK-35874", "OBJECT_ID": "2025-288D", "EPOCH": "2025-12-21T20:00:01.999008", "MEAN_MOTION": 15.76696616, "ECCENTRICITY": 0.0001971, "INCLINATION": 43.0007, "RA_OF_ASC_NODE": 111.5096, "ARG_OF_PERICENTER": 278.5485, "MEAN_ANOMALY": 97.1015, "EPHEMERIS_TYPE": 0, "CLASSIFICATION_TYPE": "U", "NORAD_CAT_ID": 66962, "ELEMENT_SET_NO": 999, "REV_AT_EPOCH": 329, "BSTAR": -0.008164, "MEAN_MOTION_DOT": -0.0119736, "MEAN_MOTION_DDOT": 0}, "tle": {"line1": "1 66962U 25288D   25355.83335647 -.01197360  00000+0 -81640-2 0  9992", "line2": "2 66962  43.0007 111.5096 0001971 278.5485  97.1015 15.76696616  3295"}}, "geometry": {"type": "Point", "coordinates": [-71.37442936587294, 0.3707190636257528]}}, {"type": "Feature", "properties": {"norad_id": 66963, "name": "STARLINK-36133", "group": "last-30-days", "lat": -0.9461049013554581, "lon": -69.96588004421275, "alt_km": 343.0743176568667, "timestamp": "2025-12-22T05:49:02.188080+00:00", "meta": {"OBJECT_NAME": "STARLINK-36133", "OBJECT_ID": "2025-288E", "EPOCH": "2025-12-21T20:00:01.999008", "MEAN_MOTION": 15.76672199, "ECCENTRICITY": 0.0001877, "INCLINATION": 43.0006, "RA_OF_ASC_NODE": 111.5047, "ARG_OF_PERICENTER": 273.3405, "MEAN_ANOMALY": 104.31, "EPHEMERIS_TYPE": 0, "CLASSIFICATION_TYPE": "U", "NORAD_CAT_ID": 66963, "ELEMENT_SET_NO": 999, "REV_AT_EPOCH": 329, "BSTAR": -0.008521, "MEAN_MOTION_DOT": -0.01242314, "MEAN_MOTION_DDOT": 0}, "tle": {"line1": "1 66963U 25288E   25355.83335647 -.01242314  00000+0 -85210-2 0  9990", "line2": "2 66963  43.0006 111.5047 0001877 273.3405 104.3100 15.76672199  3297"}}, "geometry": {"type": "Point", "coordinates": [-69.96588004421275, -0.9461049013554581]}}, {"type": "Feature", "properties": {"norad_id": 66964, "name": "STARLINK-36104", "group": "last-30-days", "lat": -2.262694900046013, "lon": -68.55663488912344, "alt_km": 343.41908380945824, "timestamp": "2025-12-22T05:49:02.188091+00:00", "meta": {"OBJECT_NAME": "STARLINK-36104", "OBJECT_ID": "2025-288F", "EPOCH": "2025-12-21T20:00:01.999008", "MEAN_MOTION": 15.76608433, "ECCENTRICITY": 0.000177, "INCLINATION": 43.0005, "RA_OF_ASC_NODE": 111.499, "ARG_OF_PERICENTER": 275.9687, "MEAN_ANOMALY": 103.7016, "EPHEMERIS_TYPE": 0, "CLASSIFICATION_TYPE": "U", "NORAD_CAT_ID": 66964, "ELEMENT_SET_NO": 999, "REV_AT_EPOCH": 329, "BSTAR": -0.008492, "MEAN_MOTION_DOT": -0.01235391, "MEAN_MOTION_DDOT": 0}, "tle": {"line1": "1 66964U 25288F   25355.83335647 -.01235391  00000+0 -84920-2 0  9995", "line2": "2 66964  43.0005 111.4990 0001770 275.9687 103.7016 15.76608433  3294"}}, "geometry": {"type": "Point", "coordinates": [-68.55663488912344, -2.262694900046013]}}, {"type": "Feature", "properties": {"norad_id": 66965, "name": "STARLINK-36067", "group": "last-30-days", "lat": -3.577859006273885, "lon": -67.1437923812989, "alt_km": 343.8797861425255, "timestamp": "2025-12-22T05:49:02.188101+00:00", "meta": {"OBJECT_NAME": "STARLINK-36067", "OBJECT_ID": "2025-288G", "EPOCH": "2025-12-21T20:00:01.999008", "MEAN_MOTION": 15.76572901, "ECCENTRICITY": 0.0001699, "INCLINATION": 43.0006, "RA_OF_ASC_NODE": 111.4944, "ARG_OF_PERICENTER": 281.3271, "MEAN_ANOMALY": 100.3562, "EPHEMERIS_TYPE": 0, "CLASSIFICATION_TYPE": "U", "NORAD_CAT_ID": 66965, "ELEMENT_SET_NO": 999, "REV_AT_EPOCH": 329, "BSTAR": -0.0088125, "MEAN_MOTION_DOT": -0.01297946, "MEAN_MOTION_DDOT": 0}, "tle": {"line1": "1 66965U 25288G   25355.83335647 -.01297946  00000+0 -88125-2 0  9991", "line2": "2 66965  43.0006 111.4944 0001699 281.3271 100.3562 15.76572901  3294"}}, "geometry": {"type": "Point", "coordinates": [-67.1437923812989, -3.577859006273885]}}, {"type": "Feature", "properties": {"norad_id": 66966, "name": "STARLINK-36139", "group": "last-30-days", "lat": -4.888099717990491, "lon": -65.73099584260959, "alt_km": 344.23237531995346, "timestamp": "2025-12-22T05:49:02.188112+00:00", "meta": {"OBJECT_NAME": "STARLINK-36139", "OBJECT_ID": "2025-288H", "EPOCH": "2025-12-21T20:00:01.999008", "MEAN_MOTION": 15.7648552, "ECCENTRICITY": 0.0001948, "INCLINATION": 43.0005, "RA_OF_ASC_NODE": 111.4884, "ARG_OF_PERICENTER": 273.9716, "MEAN_ANOMALY": 109.8177, "EPHEMERIS_TYPE": 0, "CLASSIFICATION_TYPE": "U", "NORAD_CAT_ID": 66966, "ELEMENT_SET_NO": 999, "REV_AT_EPOCH": 329, "BSTAR": -0.0093232, "MEAN_MOTION_DOT": -0.01360386, "MEAN_MOTION_DDOT": 0}, "tle": {"line1": "1 66966U 25288H   25355.83335647 -.01360386  00000+0 -93232-2 0  9996", "line2": "2 66966  43.0005 111.4884 0001948 273.9716 109.8177 15.76485520  3291"}}, "geometry": {"type": "Point", "coordinates": [-65.73099584260959, -4.888099717990491]}}, {"type": "Feature", "properties": {"norad_id": 66967, "name": "STARLINK-36136", "group": "last-30-days", "lat": -6.196506499404363, "lon": -64.31067113230296, "alt_km": 344.3988247889083, "timestamp": "2025-12-22T05:49:02.188125+00:00", "meta": {"OBJECT_NAME": "STARLINK-36136", "OBJECT_ID": "2025-288J", "EPOCH": "2025-12-21T20:00:01.999008", "MEAN_MOTION": 15.76439018, "ECCENTRICITY": 0.0001912, "INCLINATION": 43.0006, "RA_OF_ASC_NODE": 111.4834, "ARG_OF_PERICENTER": 271.0651, "MEAN_ANOMALY": 114.7246, "EPHEMERIS_TYPE": 0, "CLASSIFICATION_TYPE": "U", "NORAD_CAT_ID": 66967, "ELEMENT_SET_NO": 999, "REV_AT_EPOCH": 329, "BSTAR": -0.0093664, "MEAN_MOTION_DOT": -0.01363455, "MEAN_MOTION_DDOT": 0}, "tle": {"line1": "1 66967U 25288J   25355.83335647 -.01363455  00000+0 -93664-2 0  9996", "line2": "2 66967  43.0006 111.4834 0001912 271.0651 114.7246 15.76439018  3299"}}, "geometry": {"type": "Point", "coordinates": [-64.31067113230296, -6.196506499404363]}}, {"type": "Feature", "properties": {"norad_id": 66968, "name": "STARLINK-36152", "group": "last-30-days", "lat": -7.502746899644861, "lon": -62.881628322339836, "alt_km": 345.0372010279734, "timestamp": "2025-12-22T05:49:02.188136+00:00", "meta": {"OBJECT_NAME": "STARLINK-36152", "OBJECT_ID": "2025-288K", "EPOCH": "2025-12-21T20:00:01.999008", "MEAN_MOTION": 15.76316789, "ECCENTRICITY": 0.000164, "INCLINATION": 43.0008, "RA_OF_ASC_NODE": 111.478, "ARG_OF_PERICENTER": 279.0692, "MEAN_ANOMALY": 108.8223, "EPHEMERIS_TYPE": 0, "CLASSIFICATION_TYPE": "U", "NORAD_CAT_ID": 66968, "ELEMENT_SET_NO": 999, "REV_AT_EPOCH": 329, "BSTAR": -0.0093318, "MEAN_MOTION_DOT": -0.01352197, "MEAN_MOTION_DDOT": 0}, "tle": {"line1": "1 66968U 25288K   25355.83335647 -.01352197  00000+0 -93318-2 0  9994", "line2": "2 66968  43.0008 111.4780 0001640 279.0692 108.8223 15.76316789  3291"}}, "geometry": {"type": "Point", "coordinates": [-62.881628322339836, -7.502746899644861]}}, {"type": "Feature", "properties": {"norad_id": 66969, "name": "STARLINK-36149", "group": "last-30-days", "lat": -13.892421662374039, "lon": -55.638300946521255, "alt_km": 346.17069673696096, "timestamp": "2025-12-22T05:49:02.188145+00:00", "meta": {"OBJECT_NAME": "STARLINK-36149", "OBJECT_ID": "2025-288L", "EPOCH": "2025-12-21T20:00:01.999008", "MEAN_MOTION": 15.75823452, "ECCENTRICITY": 0.0001787, "INCLINATION": 43.0005, "RA_OF_ASC_NODE": 111.4529, "ARG_OF_PERICENTER": 283.0258, "MEAN_ANOMALY": 114.9588, "EPHEMERIS_TYPE": 0, "CLASSIFICATION_TYPE": "U", "NORAD_CAT_ID": 66969, "ELEMENT_SET_NO": 999, "REV_AT_EPOCH": 329, "BSTAR": -0.0071818, "MEAN_MOTION_DOT": -0.01030768, "MEAN_MOTION_DDOT": 0}, "tle": {"line1": "1 66969U 25288L   25355.83335647 -.01030768  00000+0 -71818-2 0  9993", "line2": "2 66969  43.0005 111.4529 0001787 283.0258 114.9588 15.75823452  3296"}}, "geometry": {"type": "Point", "coordinates": [-55.638300946521255, -13.892421662374039]}}]}